[{"OBJECT_NAME":"ICEYE-X33","OBJECT_ID":"2024-149CJ","EPOCH":"2026-03-09T17:04:13.303776","MEAN_MOTION":15.0113344,"ECCENTRICITY":0.00060627,"INCLINATION":97.7033,"RA_OF_ASC_NODE":148.5516,"ARG_OF_PERICENTER":122.8099,"MEAN_ANOMALY":237.371,"EPHEMERIS_TYPE":0,"CLASSIFICATION_TYPE":"U","NORAD_CAT_ID":60548,"ELEMENT_SET_NO":999,"REV_AT_EPOCH":8528,"BSTAR":0.00045891369,"MEAN_MOTION_DOT":5.822e-5,"MEAN_MOTION_DDOT":0},{"OBJECT_NAME":"STARLINK-35886","OBJECT_ID":"2025-280T","EPOCH":"2026-03-09T22:09:25.068384","MEAN_MOTION":14.98329417,"ECCENTRICITY":0.00026501,"INCLINATION":70.0028,"RA_OF_ASC_NODE":333.7521,"ARG_OF_PERICENTER":249.5828,"MEAN_ANOMALY":110.5047,"EPHEMERIS_TYPE":0,"CLASSIFICATION_TYPE":"U","NORAD_CAT_ID":66838,"ELEMENT_SET_NO":999,"REV_AT_EPOCH":1611,"BSTAR":0.00028740096,"MEAN_MOTION_DOT":3.338e-5,"MEAN_MOTION_DDOT":0}]
